#dP2022  6 13  0  0  0.00000000      96 __u+U ITR00 EXT  IAC
## 2214  86400.00000000   900.00000000 59743 0.0000000000000
+  116   C06C07C08C09C10C11C12C13C14C16C19C20C21C22C23C24C25
+        C26C27C28C29C30C32C33C34C35C36C37C38C39C40C41C42C43
+        C44C45C46E01E02E03E04E05E07E08E09E10E11E12E13E14E15
+        E18E19E21E24E25E26E27E30E31E33E34E36G01G02G03G04G05
+        G06G07G08G09G10G11G12G13G14G15G16G17G18G19G20G21G22
+        G23G24G25G26G27G28G29G30G31G32J02J03R01R02R03R04R05
+        R07R08R09R11R12R13R14R15R17R18R19R20R21R24  0  0  0
++         8  9 10  9  8  9  8  9  8  9  8  8  7  6  8  8  8
++         8  9  8  9  8 10  9  7  8  8  7  9  9 10  7  9  9
++         7  9  8  6  9  9  7  7  7  9  7  7  8  8  7  8  8
++         7  7  8  9  9  8  7  7  9  7  9  7  7  8  7  8  8
++         7  7  7  7  8  7  8  7  8  8  7  5  8  8  8  6  8
++         6  7  5  8  9  7  7  8  7  7 11  8  9  9  7  8  7
++         9  7  7  7  8  9  9  8  7  7  8  9  9  8  0  0  0
%c M  cc GPS ccc cccc cccc cccc cccc ccccc ccccc ccccc ccccc
%c cc cc ccc ccc cccc cccc cccc cccc ccccc ccccc ccccc ccccc
%f  0.0000000  0.000000000  0.00000000000  0.000000000000000
%f  0.0000000  0.000000000  0.00000000000  0.000000000000000
%i    0    0    0    0      0      0      0      0         0
%i    0    0    0    0      0      0      0      0         0
/* IAC                                ULTRA-RAPID PREDICTION
/* S/V CLOCKS ARE ALIGNED TO GNSS TIME                      
/* G:C1WC2W R:C1PC2P E:C1XC5X C:C2IC6I J:C1CC2S             
/* PCV:IGS14_2196 OL/AL:FES2004  NONE     YN ORB:CoN CLK:CoN
*  2022 06 13  1 30  0.00000000
PC06  -1698.149014  37964.412783 -18033.187843    177.883757
PC07  -9528.709589  25758.136084  31986.009746   -291.502450
PC08 -18563.106985  34846.719749 -15013.544732    359.616442
PC09   2242.231430  40124.248170 -11498.411311   -877.862013
PC10   -116.887372  27100.080464  32585.259510    126.662224
PC11 -15956.598148 -18914.430537  12924.110512    410.986114
PC12  -7044.481013 -26641.870361  -4319.086793   -599.519036
PC13 -12928.374593  35131.574424 -19539.251748     -5.553602
PC14 -23528.820792 -10649.004880  10514.137085    501.423013
PC16  -4009.078001  35915.954349 -21333.156631    139.064290
PC19  27471.665322   4797.237178  -1322.656854    858.732509
PC20  17474.912286  14013.753770 -16648.894290   -956.728006
PC21   3828.363272 -15396.879971  22977.235502   -473.956832
PC22  22040.708873  -7528.057817  15399.490300   -964.780798
PC23 -20707.187578  16964.052016  -7874.605146   -933.875954
PC24  -5293.964401 -17601.728093 -20995.849623   -970.897438
PC25 -19052.476744   1001.671314 -20376.012789   -722.717379
PC26   9265.478806 -24287.624234 -10112.987739    724.293835
PC27    468.389908  25028.005084  12294.397111    738.099994
PC28 -12070.497496  11658.139258  22293.946655     77.903878
PC29  18261.747466   8661.362130 -19253.043504    567.617335
PC30  13480.764970  24055.724704  -4222.052194    499.821901
PC32  -3722.910152  15418.418189 -22941.102817   -968.008170
PC33 -27453.280665  -4723.050980   1455.263511   -969.385076
PC34 -13955.527717 -23616.741536   5171.076561   -382.115896
PC35  12349.030795 -11029.609175 -22481.043146    318.072744
PC36  18833.647495     12.977560  20620.182782   -967.731236
PC37 -10769.069492  24106.999141   9082.111101   -909.172627
PC38 -22608.236734  34979.811716  -7037.526673      2.758422
PC39  -6550.296179  32390.058015 -26066.189233     34.994922
PC40 -15352.429550  19109.732845  34264.177682    276.965799
PC41 -22350.109007   7309.555728 -14968.164009   -970.227183
PC42 -16421.114201 -14405.203036  17397.993306   -961.261706
PC43 -18342.893424  -9467.524332  18774.785930   -918.505014
PC44  -1120.132938 -24975.492378 -12447.803737    690.516606
PC45  20598.142807 -17192.508122   7647.045976    781.983238
PC46   6534.025015  16441.674946  21594.987401   -375.963089
PE01 -24025.811699  15380.674823   7904.291316   -495.062155
PE02  23915.604228 -15453.649386  -8063.307032    305.308783
PE03  14015.247229 -10456.693105  23888.107317   -568.218490
PE04   4953.305079  21501.131965 -19721.700359  -1048.783603
PE05  25100.389783   6954.019891  14075.910950   -172.688633
PE07 -21416.721957 -20070.474776   3790.937392   -677.849619
PE08  -5297.630788 -21452.934052  19693.758502   -545.615714
PE09  21556.120488  19954.061653  -3717.848335   -551.467622
PE10   3805.231525  27104.553868 -11289.124235   -519.324659
PE11   9954.970721  20095.547531 -19328.287313   3368.250056
PE12  -2713.037607  29403.128653  -1925.132030     -8.040611
PE13  -9548.991132 -20696.284559  18885.446654    429.256412
PE14  25843.015980   4831.637655 -19117.759440  -1809.529719
PE15   2756.159392 -29423.134363   1755.247416    739.756145
PE18 -18374.178082  -3021.786285  14201.023070  -1336.340985
PE19 -15968.218753   8305.447413 -23487.247136  -5390.287070
PE21 -27679.978305   4059.464455  -9670.485054   -739.828067
PE24  14618.821326  11208.954435  23154.515328   -667.582810
PE25  27620.655342  -3846.219389   9928.986707   -577.375237
PE26 -16413.383845   1156.561141  24600.792888  -1255.992754
PE27 -15754.203542 -10378.580252 -22806.929997   -320.799414
PE30   6425.042247 -18736.842641 -21999.572691   -587.965971
PE31  -5336.254872  18589.401956  22416.859623   -498.179900
PE33 -13372.597391  20751.421963  16320.262176   -455.692006
PE34  13275.641741 -20930.403119 -16190.758214   -521.868660
PE36  16161.343601   -126.036330 -24804.066752   -387.300992
PG01 -13437.244631  19002.659439  12159.009388    342.513250
PG02  14621.853699   2290.188466 -21407.634807   -652.732086
PG03 -21063.801614  12828.579602  -9814.896624   -276.724088
PG04 -11920.766101   9509.089889 -21738.447936   -157.657836
PG05  25772.929004  -4840.915350  -4862.756475    -85.325097
PG06   7588.077549  17919.654162 -17980.655227    341.338308
PG07  -4698.406318  25758.202884   2737.489213    321.824683
PG08 -17972.689963   1807.788386  19548.432564    -71.908616
PG09  -1827.777423  17599.413245 -19863.144974   -328.872092
PG10  -7518.450574 -13318.334581  21888.345583   -452.646052
PG11  14571.464530   4214.490658 -21806.116264    -15.519381
PG12  23801.464009  -9656.835464  -6800.278725   -230.246591
PG13  19999.651963   8786.721166  15076.701722    328.915564
PG14   5573.261010  14441.941424  21587.507727   -111.378370
PG15  17647.627147  -4476.712056  19020.842212    -53.692258
PG16 -25167.941775  -1786.678990  -9277.849188   -508.518591
PG17  12021.116885  22120.138404   8806.316987    624.329521
PG18   5739.897938 -25793.253107   1971.564813    143.773441
PG19  17146.930094  20442.582406   -288.878382    169.943049
PG20  21710.685462   1972.599014 -15007.739082    511.901024
PG21 -15605.434565   9416.960743  19708.469360    161.310935
PG22 -18339.955267 -19217.187511  -1800.700309    274.847598
PG23   4802.822931 -16198.097045  20457.230226    -27.685790
PG24  14212.133850 -15868.549490  15299.822613    221.980274
PG25  12439.095927 -16166.726235 -17150.570423    336.657677
PG26 -18908.314653  -7090.715255 -17493.603014    211.971240
PG27 -21774.911729 -10566.393169  11164.228922    214.920410
PG28  14389.852193  11175.925927  19754.791918    339.406993
PG29   2622.773402 -17304.558328 -20009.138118   -523.473651
PG30   2258.755884  23768.527239  11453.349834   -531.197352
PG31  -9759.801958 -15503.674984 -19194.884108   -181.572003
PG32 -15262.722263 -20936.616219   6427.037912   -149.828442
PJ02 -30819.786357  27332.942739  13820.774329     -0.645612
PJ03 -25192.225657  26618.439885  25875.403145     -2.815837
PR01  23735.004345   8906.894934  -2900.140770      9.862493
PR02  20032.807568   -883.382490  15774.216513    521.132515
PR03   4619.760890  -9977.437328  23063.002759     58.339018
PR04 -13066.561962 -13182.724788  17532.307911    146.177524
PR05 -23618.865705  -9380.963966   2336.096453     94.531920
PR07  -3928.446427  10182.902336 -23012.968536     36.345685
PR08  13240.822191  13178.137253 -17296.427686    -65.664322
PR09 -20223.916934  13741.245451  -7111.092262     60.179331
PR11    -31.682116  13747.509528  21494.976658     36.383055
PR12  15005.088084   -121.886202  20651.391621     18.828726
PR13  20292.091384 -12953.413746   8425.332114    -23.527087
PR14  13745.840760 -18912.255976 -10210.185384     25.265765
PR15   -647.123814 -13325.053316 -21720.352010     95.444333
PR17   1803.397135 -21847.027615 -13009.919624    534.423740
PR18  -6108.632350 -24556.811060   3429.278245    120.091236
PR19 -10248.701395 -15667.258087  17315.633726   -192.508026
PR20  -9425.981882   5749.320512  22990.043032    -72.512477
PR21  -1108.430469  22652.966064  11692.458428   -308.967442
PR24   9534.110552  -6839.178752 -22638.739449     98.408249
EOF
